{
  "type": "FeatureCollection",
  "features": [
    {
      "type": "Feature",
      "properties": {
        "norad_id": 35606,
        "name": "COSMOS 2251 DEB",
        "group": "cosmos-2251-debris",
        "lat": -73.80159688959117,
        "lon": -63.22938967143519,
        "alt_km": 831.5271455488264,
        "timestamp": "2025-12-02T23:34:15.913602+00:00",
        "meta_object_name": "COSMOS 2251 DEB",
        "meta_object_id": "1993-036AMZ",
        "meta_epoch": "2025-12-01T13:59:58.207776",
        "meta_mean_motion": 13.41178531,
        "meta_eccentricity": 0.04578452,
        "meta_inclination": 73.8111,
        "meta_ra_of_asc_node": 28.5794,
        "meta_arg_of_pericenter": 235.9208,
        "meta_mean_anomaly": 119.7645,
        "meta_ephemeris_type": 0,
        "meta_classification_type": "U",
        "meta_norad_cat_id": 35606,
        "meta_element_set_no": 999,
        "meta_rev_at_epoch": 60890,
        "meta_bstar": 0.0014608258,
        "meta_mean_motion_dot": 1.479e-05,
        "meta_mean_motion_ddot": 0,
        "tle_line1": "1 35606U 93036AMZ 25335.58331259  .00001479  00000+0  14608-2 0  9996",
        "tle_line2": "2 35606  73.8111  28.5794 0457845 235.9208 119.7645 13.41178531608900"
      },
      "geometry": {
        "type": "Point",
        "coordinates": [
          -63.22938967143519,
          -73.80159688959117
        ]
      }
    },
    {
      "type": "Feature",
      "properties": {
        "norad_id": 35611,
        "name": "COSMOS 2251 DEB",
        "group": "cosmos-2251-debris",
        "lat": 71.92437238012985,
        "lon": -43.070325974331546,
        "alt_km": 661.7541478763833,
        "timestamp": "2025-12-02T23:34:15.913612+00:00",
        "meta_object_name": "COSMOS 2251 DEB",
        "meta_object_id": "1993-036ANE",
        "meta_epoch": "2025-12-01T14:30:37.941120",
        "meta_mean_motion": 14.72378528,
        "meta_eccentricity": 0.00224128,
        "meta_inclination": 74.0218,
        "meta_ra_of_asc_node": 201.0005,
        "meta_arg_of_pericenter": 275.1179,
        "meta_mean_anomaly": 84.7435,
        "meta_ephemeris_type": 0,
        "meta_classification_type": "U",
        "meta_norad_cat_id": 35611,
        "meta_element_set_no": 999,
        "meta_rev_at_epoch": 87126,
        "meta_bstar": 0.0019124254,
        "meta_mean_motion_dot": 0.00012147,
        "meta_mean_motion_ddot": 0,
        "tle_line1": "1 35611U 93036ANE 25335.60460580  .00012147  00000+0  19124-2 0  9997",
        "tle_line2": "2 35611  74.0218 201.0005 0022412 275.1179  84.7435 14.72378528871263"
      },
      "geometry": {
        "type": "Point",
        "coordinates": [
          -43.070325974331546,
          71.92437238012985
        ]
      }
    },
    {
      "type": "Feature",
      "properties": {
        "norad_id": 35614,
        "name": "COSMOS 2251 DEB",
        "group": "cosmos-2251-debris",
        "lat": 54.35274102532397,
        "lon": 10.036980737675666,
        "alt_km": 710.0052262888457,
        "timestamp": "2025-12-02T23:34:15.913622+00:00",
        "meta_object_name": "COSMOS 2251 DEB",
        "meta_object_id": "1993-036ANH",
        "meta_epoch": "2025-11-28T17:49:08.774688",
        "meta_mean_motion": 14.66804035,
        "meta_eccentricity": 0.0076739,
        "meta_inclination": 73.9598,
        "meta_ra_of_asc_node": 354.6008,
        "meta_arg_of_pericenter": 212.3283,
        "meta_mean_anomaly": 147.3173,
        "meta_ephemeris_type": 0,
        "meta_classification_type": "U",
        "meta_norad_cat_id": 35614,
        "meta_element_set_no": 999,
        "meta_rev_at_epoch": 87524,
        "meta_bstar": 0.00086232481,
        "meta_mean_motion_dot": 4.997e-05,
        "meta_mean_motion_ddot": 0,
        "tle_line1": "1 35614U 93036ANH 25332.74246267  .00004997  00000+0  86232-3 0  9995",
        "tle_line2": "2 35614  73.9598 354.6008 0076739 212.3283 147.3173 14.66804035875240"
      },
      "geometry": {
        "type": "Point",
        "coordinates": [
          10.036980737675666,
          54.35274102532397
        ]
      }
    },
    {
      "type": "Feature",
      "properties": {
        "norad_id": 35645,
        "name": "COSMOS 2251 DEB",
        "group": "cosmos-2251-debris",
        "lat": 8.41530633017225,
        "lon": -76.43418211241907,
        "alt_km": 745.311331733149,
        "timestamp": "2025-12-02T23:34:15.913632+00:00",
        "meta_object_name": "COSMOS 2251 DEB",
        "meta_object_id": "1993-036ANL",
        "meta_epoch": "2025-12-01T15:12:41.072544",
        "meta_mean_motion": 14.45293228,
        "meta_eccentricity": 0.00694021,
        "meta_inclination": 73.964,
        "meta_ra_of_asc_node": 108.5275,
        "meta_arg_of_pericenter": 267.6682,
        "meta_mean_anomaly": 91.6528,
        "meta_ephemeris_type": 0,
        "meta_classification_type": "U",
        "meta_norad_cat_id": 35645,
        "meta_element_set_no": 999,
        "meta_rev_at_epoch": 86611,
        "meta_bstar": 0.0020375469,
        "meta_mean_motion_dot": 7.347e-05,
        "meta_mean_motion_ddot": 0,
        "tle_line1": "1 35645U 93036ANL 25335.63380871  .00007347  00000+0  20375-2 0  9997",
        "tle_line2": "2 35645  73.9640 108.5275 0069402 267.6682  91.6528 14.45293228866113"
      },
      "geometry": {
        "type": "Point",
        "coordinates": [
          -76.43418211241907,
          8.41530633017225
        ]
      }
    },
    {
      "type": "Feature",
      "properties": {
        "norad_id": 35646,
        "name": "COSMOS 2251 DEB",
        "group": "cosmos-2251-debris",
        "lat": 12.876882913978763,
        "lon": -112.28030724129538,
        "alt_km": 777.6260343871227,
        "timestamp": "2025-12-02T23:34:15.913642+00:00",
        "meta_object_name": "COSMOS 2251 DEB",
        "meta_object_id": "1993-036ANM",
        "meta_epoch": "2025-11-30T17:47:23.483328",
        "meta_mean_motion": 13.40777703,
        "meta_eccentricity": 0.04579187,
        "meta_inclination": 73.8717,
        "meta_ra_of_asc_node": 75.0665,
        "meta_arg_of_pericenter": 187.2005,
        "meta_mean_anomaly": 328.3577,
        "meta_ephemeris_type": 0,
        "meta_classification_type": "U",
        "meta_norad_cat_id": 35646,
        "meta_element_set_no": 999,
        "meta_rev_at_epoch": 81697,
        "meta_bstar": 0.001266768,
        "meta_mean_motion_dot": 1.273e-05,
        "meta_mean_motion_ddot": 0,
        "tle_line1": "1 35646U 93036ANM 25334.74124402  .00001273  00000+0  12668-2 0  9993",
        "tle_line2": "2 35646  73.8717  75.0665 0457918 187.2005 328.3577 13.40777703816970"
      },
      "geometry": {
        "type": "Point",
        "coordinates": [
          -112.28030724129538,
          12.876882913978763
        ]
      }
    },
    {
      "type": "Feature",
      "properties": {
        "norad_id": 35647,
        "name": "COSMOS 2251 DEB",
        "group": "cosmos-2251-debris",
        "lat": -48.973436393039734,
        "lon": -66.50588172434628,
        "alt_km": 762.0989701380877,
        "timestamp": "2025-12-02T23:34:15.913653+00:00",
        "meta_object_name": "COSMOS 2251 DEB",
        "meta_object_id": "1993-036ANN",
        "meta_epoch": "2025-11-30T05:16:45.601536",
        "meta_mean_motion": 14.43522503,
        "meta_eccentricity": 0.00448795,
        "meta_inclination": 74.0228,
        "meta_ra_of_asc_node": 317.854,
        "meta_arg_of_pericenter": 60.3211,
        "meta_mean_anomaly": 300.2402,
        "meta_ephemeris_type": 0,
        "meta_classification_type": "U",
        "meta_norad_cat_id": 35647,
        "meta_element_set_no": 999,
        "meta_rev_at_epoch": 67483,
        "meta_bstar": 0.00078586372,
        "meta_mean_motion_dot": 2.667e-05,
        "meta_mean_motion_ddot": 0,
        "tle_line1": "1 35647U 93036ANN 25334.21997224  .00002667  00000+0  78586-3 0  9996",
        "tle_line2": "2 35647  74.0228 317.8540 0044879  60.3211 300.2402 14.43522503674831"
      },
      "geometry": {
        "type": "Point",
        "coordinates": [
          -66.50588172434628,
          -48.973436393039734
        ]
      }
    },
    {
      "type": "Feature",
      "properties": {
        "norad_id": 35650,
        "name": "COSMOS 2251 DEB",
        "group": "cosmos-2251-debris",
        "lat": 16.281972027465137,
        "lon": -146.6009661900259,
        "alt_km": 616.1677071949653,
        "timestamp": "2025-12-02T23:34:15.913663+00:00",
        "meta_object_name": "COSMOS 2251 DEB",
        "meta_object_id": "1993-036ANR",
        "meta_epoch": "2025-12-01T04:53:35.752992",
        "meta_mean_motion": 14.831378,
        "meta_eccentricity": 0.00145,
        "meta_inclination": 74.0471,
        "meta_ra_of_asc_node": 41.7078,
        "meta_arg_of_pericenter": 96.3745,
        "meta_mean_anomaly": 295.6249,
        "meta_ephemeris_type": 0,
        "meta_classification_type": "U",
        "meta_norad_cat_id": 35650,
        "meta_element_set_no": 999,
        "meta_rev_at_epoch": 87463,
        "meta_bstar": 0.0022155,
        "meta_mean_motion_dot": 0.00018115,
        "meta_mean_motion_ddot": 0,
        "tle_line1": "1 35650U 93036ANR 25335.20388603  .00018115  00000+0  22155-2 0  9990",
        "tle_line2": "2 35650  74.0471  41.7078 0014500  96.3745 295.6249 14.83137800874635"
      },
      "geometry": {
        "type": "Point",
        "coordinates": [
          -146.6009661900259,
          16.281972027465137
        ]
      }
    }
  ]
}